NANOSATC-BR1            
1 40024U 14033Q   26068.98267556  .00020336  00000+0  74295-3 0  9994
2 40024  98.0845  92.7804 0004644 147.6715 212.4808 15.28136801638811
STARLINK-35501          
1 66436U 25259Q   26068.55099608  .00025023  00000+0  91588-3 0  9997
2 66436  43.0011 274.8197 0004077 295.3418  64.7011 15.27569906 19474
